CUTE-1 (CO-55)          
1 27844U 03031E   26056.48051706  .00000326  00000+0  15999-3 0  9998
2 27844  98.6780  66.4309 0010222 144.6947 215.4911 14.24254300175770
CUBESAT XI-IV (CO-57)   
1 27848U 03031J   26056.48362161  .00000268  00000+0  13700-3 0  9995
2 27848  98.6808  66.2366 0009786 161.7487 198.4044 14.23551165175481
CUBESAT XI-V            
1 28895U 05043F   26056.41468058  .00001888  00000+0  30702-3 0  9998
2 28895  98.2811 209.8090 0014005 196.1322 163.9441 14.72255076 85308
CUTE-1.7+APD II (CO-65) 
1 32785U 08021C   26057.16994869  .00006007  00000+0  39235-3 0  9995
2 32785  97.8179  36.4387 0010712  53.2678 306.9531 15.08171384968458
CANX-2                  
1 32790U 08021H   26056.87031045  .00004966  00000+0  35725-3 0  9998
2 32790  97.8547  34.6257 0012309  64.4578 295.7918 15.04646030968068
SEEDS II (CO-66)        
1 32791U 08021J   26056.41941889  .00018343  00000+0  66382-3 0  9992
2 32791  97.7508  49.3465 0003451  32.0771 328.0677 15.28468831970199
SWISSCUBE               
1 35932U 09051B   26056.50247497  .00001167  00000+0  24145-3 0  9997
2 35932  98.4110 322.4287 0006247 190.7473 169.3595 14.62219639872834
BEESAT-1                
1 35933U 09051C   26056.31825994  .00000984  00000+0  20832-3 0  9996
2 35933  98.4040 322.1061 0004486 203.4547 156.6449 14.61499075872842
ITUPSAT1                
1 35935U 09051E   26057.17110615  .00000845  00000+0  18534-3 0  9992
2 35935  98.4127 322.2786 0006530 216.4463 143.6293 14.60238330872531
TISAT 1                 
1 36799U 10035E   26056.76742832  .00019502  00000+0  73855-3 0  9998
2 36799  98.0631 353.8986 0000659   3.5070 356.6172 15.26966510850677
AEROCUBE 4.5A           
1 38767U 12048K   26057.12643501  .00074170  00000+0  87837-3 0  9992
2 38767  64.6376  60.2436 0042795 216.1798 143.6450 15.59682077355182
STRAND-1                
1 39090U 13009E   26056.44953763  .00000356  00000+0  13429-3 0  9999
2 39090  98.3875 239.4461 0008328 198.0163 162.0730 14.37082161681019
BRITE-AUSTRIA           
1 39091U 13009F   26057.04195717  .00000213  00000+0  86976-4 0  9994
2 39091  98.3945 239.2413 0009686 206.2781 153.7915 14.36487907681095
NEE-01 PEGASO           
1 39151U 13018B   26056.83786235  .00002949  00000+0  28932-3 0  9993
2 39151  98.1024 197.4738 0013118 167.2491 192.9062 14.92980407694088
POPACS 2                
1 39269U 13055E   26055.92926249  .00020941  00000+0  36951-3 0  9996
2 39269  80.9912 272.3588 0432767 193.5751 165.3526 14.87074396646503
POPACS 3                
1 39270U 13055F   26056.77359752  .00014666  00000+0  35286-3 0  9998
2 39270  81.0053 349.7878 0562405  48.8505 315.9822 14.53533108622359
ZACUBE-1 (TSHEPISOSAT)  
1 39417U 13066B   26057.12481252  .00004620  00000+0  36830-3 0  9999
2 39417  97.8183  18.8924 0041030 259.4856 100.1743 15.00179629664070
WNISAT-1                
1 39423U 13066H   26056.89411721  .00001414  00000+0  26660-3 0  9991
2 39423  97.7022 214.0650 0162857 222.1245 136.7345 14.57819206650514
TRITON-1                
1 39427U 13066M   26057.18652803  .00003474  00000+0  42430-3 0  9997
2 39427  97.8294 329.5417 0089480 235.6316 123.6409 14.81123405657655
GOMX-1                  
1 39430U 13066Q   26057.17786455  .00001636  00000+0  25222-3 0  9999
2 39430  97.6579 264.6003 0130781  74.1329 287.4248 14.69044419653619
CUBEBUG-2 (LO-74)       
1 39440U 13066AA  26057.10213333  .00004806  00000+0  45458-3 0  9998
2 39440  97.8789   5.7600 0059983  36.8813 323.6508 14.92782462660410
NEE-02 KRYSAOR          
1 39441U 13066AB  26056.32587067  .00002629  00000+0  29419-3 0  9990
2 39441  97.8800 356.4401 0068573  76.6916 284.1935 14.86067626659583
FUNCUBE-1 (AO-73)       
1 39444U 13066AE  26056.42992518  .00007538  00000+0  49169-3 0  9993
2 39444  97.8169  25.7649 0035931 221.4379 138.4122 15.07647023662817
UWE-3                   
1 39446U 13066AG  26056.35657953  .00006222  00000+0  54662-3 0  9991
2 39446  97.8576  11.8439 0049155 334.8241  25.0584 14.96005096660854
BRITE-CA1 (TORONTO)     
1 40020U 14033L   26057.14454830  .00001050  00000+0  16629-3 0  9998
2 40020  97.9549 188.2524 0077649 272.4207  86.8112 14.72423285625870
DUCHIFAT-1              
1 40021U 14033M   26057.07197548  .00047797  00000+0  90361-3 0  9994
2 40021  98.0663 102.1451 0007002 117.0779 243.1184 15.48248217638479
NANOSATC-BR1            
1 40024U 14033Q   26056.99757847  .00017034  00000+0  63328-3 0  9995
2 40024  98.0862  79.7869 0003336 182.0114 178.1110 15.27605313636987
QB50P1                  
1 40025U 14033R   26056.96407598  .00009507  00000+0  49522-3 0  9994
2 40025  98.1006  60.4584 0007259 241.1752 118.8750 15.16221894636160
QB50P2                  
1 40032U 14033Y   26056.49873098  .00008283  00000+0  46760-3 0  9993
2 40032  98.0725  46.5932 0007197 180.3106 179.8120 15.13400159635768
PERSEUS-M2              
1 40037U 14033AD  26057.18275895  .00002250  00000+0  21068-3 0  9998
2 40037  97.9836   5.5776 0011022 312.7725  47.2567 14.95090668634193
PERSEUS-M1              
1 40039U 14033AF  26056.82899013  .00002031  00000+0  19022-3 0  9998
2 40039  97.9531 359.2416 0010633 312.5344  47.4977 14.95176854633995
POLYITAN-1              
1 40042U 14033AJ  26056.96180318  .00017898  00000+0  63774-3 0  9998
2 40042  98.1064  73.0015 0008203 161.7481 198.4053 15.28965693636578
TIGRISAT                
1 40043U 14033AK  26056.39140471  .00002371  00000+0  28024-3 0  9991
2 40043  97.7646 209.1043 0050927  81.8674 278.8314 14.84650064629039
AEROCUBE 6A             
1 40045U 14033AM  26056.42931150  .00005925  00000+0  51624-3 0  9999
2 40045  97.7122 224.7414 0039977  31.2432 329.1153 14.96645792629898
AEROCUBE 6B             
1 40046U 14033AN  26056.40376301  .00006903  00000+0  58070-3 0  9998
2 40046  97.7087 224.2851 0037986  23.3667 336.9271 14.98009171630019
CANX-4                  
1 40055U 14034C   26057.15813904  .00001022  00000+0  13912-3 0  9990
2 40055  98.3296 288.3020 0013167  13.6777 346.4788 14.81026060628098
CANX-5                  
1 40056U 14034D   26057.15784189  .00001021  00000+0  13892-3 0  9999
2 40056  98.3298 288.3386 0013159  13.8655 346.2915 14.81042727618901
UKUBE-1                 
1 40074U 14037F   26056.90094822  .00009219  00000+0  54874-3 0  9994
2 40074  98.4227  48.6681 0002470 123.0561 237.0904 15.11490251631737
BRITE-PL2 (HEWELIUSZ)   
1 40119U 14049B   26056.61863014  .00001647  00000+0  15929-3 0  9997
2 40119  97.8976 167.8807 0015226 118.0896 242.1864 14.94106549624786
AEROCUBE 5C             
1 40965U 15058B   26056.97251119  .00003605  00000+0  32560-3 0  9999
2 40965  64.7659 248.3938 0131413 107.1873 254.3674 14.90732711349079
AEROCUBE 7              
1 40966U 15058C   26056.87569920  .00005248  00000+0  42992-3 0  9996
2 40966  64.7614 233.2168 0121443 106.3739 255.0767 14.94732660349318
FOX-1A (AO-85)          
1 40967U 15058D   26057.18455730  .00003207  00000+0  29657-3 0  9991
2 40967  64.7741 263.7602 0129484 100.5305 261.0425 14.90240130 97027
SINOD-D 1               
1 40968U 15058E   26057.13383461  .00004832  00000+0  39871-3 0  9992
2 40968  64.7738 246.4303 0117858  98.0062 263.4445 14.94889129100050
SNAP-3 ALICE            
1 40970U 15058G   26057.16674309  .00052078  00000+0  11786-2 0  9991
2 40970  64.7569 122.1336 0037506  74.4670 286.0603 15.42079045 99679
LMRST-SAT               
1 40971U 15058H   26056.97789152  .00003336  00000+0  30919-3 0  9996
2 40971  64.7749 260.5337 0131656 102.5501 259.0373 14.89870231 96986
SNAP-3 EDDIE            
1 40972U 15058J   26056.52284030  .00042617  00000+0  93467-3 0  9995
2 40972  64.7490 115.7641 0038757  79.6151 280.9351 15.43026282101708
PROPCUBE 3              
1 40973U 15058K   26056.94650462  .00004609  00000+0  39062-3 0  9998
2 40973  64.7673 239.8723 0124276 104.4082 257.0862 14.93379880 98181
BISONSAT                
1 40974U 15058L   26056.46772703  .00012840  00000+0  67103-3 0  9992
2 40974  64.7600 174.1140 0079655  96.7905 264.2290 15.13421227 98690
SNAP-3 JIMI             
1 40975U 15058M   26056.50580222  .00006978  00000+0  49649-3 0  9991
2 40975  64.7643 212.7711 0106298 101.7160 259.5907 15.00908167 97459
PROPCUBE 1 (FLORA)      
1 40976U 15058N   26057.03296508  .00002866  00000+0  27796-3 0  9993
2 40976  64.7745 279.5584 0130793 104.7669 256.7977 14.88532087 99712
SINOD-D 3               
1 40977U 15058P   26056.95719735  .00004354  00000+0  37748-3 0  9998
2 40977  64.7715 262.9135 0119277 102.9423 258.5042 14.93055117 98149
HORYU-4                 
1 41340U 16012D   26056.32349770  .00073433  00000+0  84799-3 0  9995
2 41340  30.9909 154.3475 0001282   6.0349 354.0318 15.60547813553173
RAVAN                   
1 41849U 16067B   26056.21274565  .00036230  00000+0  76696-3 0  9997
2 41849  98.0069 293.6464 0007551  45.2421 314.9439 15.45009635510355
CELTEE 1                
1 41850U 16067C   26057.08474129  .00006219  00000+0  30600-3 0  9992
2 41850  98.0836 276.0634 0000342 101.4009 258.7262 15.18408825509015
OPTICUBE 04             
1 41851U 16067D   26057.10576878  .00002986  00000+0  19227-3 0  9999
2 41851  98.0822 263.5434 0016809 130.4687 229.8009 15.09104955508417
AEROCUBE 8D             
1 41852U 16067E   26057.03116793  .00008304  00000+0  36035-3 0  9994
2 41852  98.0854 278.7763 0004090 142.3632 217.7889 15.22620760509142
AEROCUBE 8C             
1 41853U 16067F   26057.13896572  .00008299  00000+0  35767-3 0  9990
2 41853  98.0722 276.2677 0006723  85.6271 274.5732 15.22843879509154
CORVUS BC2              
1 42846U 17042X   26056.43170632  .00003402  00000+0  24032-3 0  9995
2 42846  97.3923 222.2637 0014431 131.1734 229.0740 15.05471592470246
CORVUS BC1              
1 42847U 17042Y   26056.44002058  .00002983  00000+0  20998-3 0  9993
2 42847  97.3961 223.0082 0013729 109.1630 251.1085 15.05700860470275
